[{"OBJECT_NAME":"STARLINK-30075","OBJECT_ID":"2023-119Q","EPOCH":"2026-03-09T22:00:01.999584","MEAN_MOTION":15.2263159,"ECCENTRICITY":0.0001352,"INCLINATION":43.0009,"RA_OF_ASC_NODE":79.7016,"ARG_OF_PERICENTER":227.8625,"MEAN_ANOMALY":290.7917,"EPHEMERIS_TYPE":0,"CLASSIFICATION_TYPE":"U","NORAD_CAT_ID":57616,"ELEMENT_SET_NO":999,"REV_AT_EPOCH":573,"BSTAR":0.044527493,"MEAN_MOTION_DOT":0.01146651,"MEAN_MOTION_DDOT":0},{"OBJECT_NAME":"DUTHSAT-2","OBJECT_ID":"2025-135C","EPOCH":"2026-03-09T21:32:17.103552","MEAN_MOTION":15.24292207,"ECCENTRICITY":0.00054547,"INCLINATION":97.4491,"RA_OF_ASC_NODE":185.111,"ARG_OF_PERICENTER":168.1696,"MEAN_ANOMALY":191.967,"EPHEMERIS_TYPE":0,"CLASSIFICATION_TYPE":"U","NORAD_CAT_ID":64530,"ELEMENT_SET_NO":999,"REV_AT_EPOCH":3979,"BSTAR":0.00073395674,"MEAN_MOTION_DOT":0.00017894,"MEAN_MOTION_DDOT":0}]
